{
    "links": {
        "self": "http://www.neowsapp.com/rest/v1/neo/3789453?api_key=iIulBulltgU6a56xZRHN4H3l9WmuAYTsLGpBGhQ2"
    },
    "id": "3789453",
    "neo_reference_id": "3789453",
    "name": "(2017 WA1)",
    "designation": "2017 WA1",
    "nasa_jpl_url": "http://ssd.jpl.nasa.gov/sbdb.cgi?sstr=3789453",
    "absolute_magnitude_h": 24.6,
    "estimated_diameter": {
        "kilometers": {
            "estimated_diameter_min": 0.0319561887,
            "estimated_diameter_max": 0.0714562102
        },
        "meters": {
            "estimated_diameter_min": 31.9561886721,
            "estimated_diameter_max": 71.4562101727
        },
        "miles": {
            "estimated_diameter_min": 0.0198566489,
            "estimated_diameter_max": 0.0444008168
        },
        "feet": {
            "estimated_diameter_min": 104.8431420431,
            "estimated_diameter_max": 234.436392583
        }
    },
    "is_potentially_hazardous_asteroid": false,
    "close_approach_data": [
        {
            "close_approach_date": "2017-11-18",
            "close_approach_date_full": "2017-Nov-18 03:21",
            "epoch_date_close_approach": 1510975260000,
            "relative_velocity": {
                "kilometers_per_second": "6.7494361318",
                "kilometers_per_hour": "24297.9700744666",
                "miles_per_hour": "15097.8136832151"
            },
            "miss_distance": {
                "astronomical": "0.1842530978",
                "lunar": "71.6744550442",
                "kilometers": "27563870.971781686",
                "miles": "17127395.2139958268"
            },
            "orbiting_body": "Earth"
        }
    ],
    "orbital_data": {
        "orbit_id": "2",
        "orbit_determination_date": "2017-12-11 06:20:50",
        "first_observation_date": "2017-11-17",
        "last_observation_date": "2017-12-10",
        "data_arc_in_days": 23,
        "observations_used": 15,
        "orbit_uncertainty": "8",
        "minimum_orbit_intersection": ".183455",
        "jupiter_tisserand_invariant": "3.200",
        "epoch_osculation": "2458075.5",
        "eccentricity": ".5408461400140838",
        "semi_major_axis": "2.552287477073496",
        "inclination": "9.685473344006528",
        "ascending_node_longitude": "235.6780348643959",
        "orbital_period": "1489.336424985741",
        "perihelion_distance": "1.171892646892011",
        "perihelion_argument": "181.3968143603233",
        "aphelion_distance": "3.93268230725498",
        "perihelion_time": "2458077.859604392014",
        "mean_anomaly": "359.4296402297868",
        "mean_motion": ".2417183881092861",
        "equinox": "J2000",
        "orbit_class": {
            "orbit_class_type": "AMO",
            "orbit_class_description": "Near-Earth asteroid orbits similar to that of 1221 Amor",
            "orbit_class_range": "1.017 AU < q (perihelion) < 1.3 AU"
        }
    },
    "is_sentry_object": false
}